NORAD_CAT_ID,OBJECT_NAME,OBJECT_TYPE,EPOCH,MEAN_MOTION,ECCENTRICITY,INCLINATION,RA_OF_ASC_NODE,ARG_OF_PERICENTER,MEAN_ANOMALY,BSTAR,MEAN_MOTION_DOT,MEAN_MOTION_DDOT,TLE_LINE0,TLE_LINE1,TLE_LINE2,SEMIMAJOR_AXIS,PERIOD,APOGEE,PERIGEE,DECAYED
55789.0,STARLINK-5815,PAYLOAD,2024-03-04 13:42:05,14.98334713,0.0002891,69.9972,257.9029,270.1561,89.9266,9.674e-05,1.062e-05,0.0,0 STARLINK-5815,1 55789U 23028BA  24064.57089261  .00001062  00000-0  96740-4 0  9992,2 55789  69.9972 257.9029 0002891 270.1561  89.9266 14.98334713 56918,6950.178,96.107,574.053,570.034,0.0
55789.0,STARLINK-5815,PAYLOAD,2024-03-04 20:06:37,14.98335769,0.0002881,69.9975,257.2296,270.3219,89.761,0.00010367,1.144e-05,0.0,0 STARLINK-5815,1 55789U 23028BA  24064.83793078  .00001144  00000-0  10367-3 0  9990,2 55789  69.9975 257.2296 0002881 270.3219  89.7610 14.98335769 56947,6950.175,96.107,574.042,570.038,0.0
55789.0,STARLINK-5815,PAYLOAD,2024-03-04 21:42:45,14.98335639,0.0002885,69.9975,257.0613,270.38,89.7029,9.9862e-05,1.099e-05,0.0,0 STARLINK-5815,1 55789U 23028BA  24064.90469071  .00001099  00000-0  99862-4 0  9998,2 55789  69.9975 257.0613 0002885 270.3800  89.7029 14.98335639 56960,6950.175,96.107,574.046,570.035,0.0
55789.0,STARLINK-5815,PAYLOAD,2024-03-05 13:44:06,14.98328649,0.000282,69.9976,255.3778,271.2467,88.8369,-5.0105e-05,-6.91e-06,0.0,0 STARLINK-5815,1 55789U 23028BA  24065.57229844 -.00000691  00000-0 -50105-4 0  9990,2 55789  69.9976 255.3778 0002820 271.2467  88.8369 14.98328649 57064,6950.197,96.107,574.022,570.102,0.0
55789.0,STARLINK-5815,PAYLOAD,2024-03-05 20:08:39,14.983264,0.0002853,69.9978,254.7048,269.0647,91.0185,-7.016e-05,-9.3e-06,0.0,0 STARLINK-5815,1 55789U 23028BA  24065.83934032 -.00000930  00000-0 -70160-4 0  9990,2 55789  69.9978 254.7048 0002853 269.0647  91.0185 14.98326400 57098,6950.204,96.107,574.052,570.086,0.0
55789.0,STARLINK-5815,PAYLOAD,2024-03-06 13:46:07,14.98331672,0.0002882,69.9982,252.853,268.528,91.5549,-6.8136e-05,-9.06e-06,0.0,0 STARLINK-5815,1 55789U 23028BA  24066.57369687 -.00000906  00000-0 -68136-4 0  9993,2 55789  69.9982 252.8530 0002882 268.5280  91.5549 14.98331672 57217,6950.188,96.107,574.056,570.05,0.0
55789.0,STARLINK-5815,PAYLOAD,2024-03-06 20:10:39,14.98331493,0.0002926,69.9981,252.1796,268.6799,91.4025,-8.9453e-05,-1.16e-05,0.0,0 STARLINK-5815,1 55789U 23028BA  24066.84073727 -.00001160  00000-0 -89453-4 0  9998,2 55789  69.9981 252.1796 0002926 268.6799  91.4025 14.98331493 57240,6950.188,96.107,574.087,570.02,0.0
55789.0,STARLINK-5815,PAYLOAD,2024-03-07 13:48:08,14.98327308,0.0003023,69.9981,250.3274,268.9295,91.1518,6.4645e-05,6.78e-06,0.0,0 STARLINK-5815,1 55789U 23028BA  24067.57509537  .00000678  00000-0  64645-4 0  9999,2 55789  69.9981 250.3274 0003023 268.9295  91.1518 14.98327308 57361,6950.201,96.107,574.167,569.965,0.0
55789.0,STARLINK-5815,PAYLOAD,2024-03-08 12:14:01,14.98330319,0.0003027,69.9984,247.9708,269.5134,90.5678,4.4086e-05,4.33e-06,0.0,0 STARLINK-5815,1 55789U 23028BA  24068.50973431  .00000433  00000-0  44086-4 0  9997,2 55789  69.9984 247.9708 0003027 269.5134  90.5678 14.98330319 57491,6950.192,96.107,574.161,569.953,0.0
55789.0,STARLINK-5815,PAYLOAD,2024-03-08 18:38:33,14.98331015,0.0003055,69.9984,247.2977,269.8031,90.2778,2.7729e-05,2.38e-06,0.0,0 STARLINK-5815,1 55789U 23028BA  24068.77677412  .00000238  00000-0  27729-4 0  9994,2 55789  69.9984 247.2977 0003055 269.8031  90.2778 14.98331015 57540,6950.19,96.107,574.178,569.931,0.0
55789.0,STARLINK-5815,PAYLOAD,2024-03-09 12:16:02,14.98329897,0.0003023,69.9988,245.4459,269.9551,90.1262,-2.2815e-05,-3.65e-06,0.0,0 STARLINK-5815,1 55789U 23028BA  24069.51113574 -.00000365  00000-0 -22815-4 0  9995,2 55789  69.9988 245.4459 0003023 269.9551  90.1262 14.98329897 57645,6950.193,96.107,574.159,569.957,0.0
55789.0,STARLINK-5815,PAYLOAD,2024-03-09 18:40:34,14.98330175,0.0003056,69.9988,244.7728,270.5454,89.5355,-2.8225e-05,-4.3e-06,0.0,0 STARLINK-5815,1 55789U 23028BA  24069.77817559 -.00000430  00000-0 -28225-4 0  9991,2 55789  69.9988 244.7728 0003056 270.5454  89.5355 14.98330175 57693,6950.192,96.107,574.181,569.933,0.0
55789.0,STARLINK-5815,PAYLOAD,2024-03-10 12:18:03,14.98329642,0.0003064,69.9996,242.9215,270.9103,89.1705,-2.2011e-05,-3.56e-06,0.0,0 STARLINK-5815,1 55789U 23028BA  24070.51253561 -.00000356  00000-0 -22011-4 0  9996,2 55789  69.9996 242.9215 0003064 270.9103  89.1705 14.98329642 57790,6950.194,96.107,574.189,569.929,0.0
55789.0,STARLINK-5815,PAYLOAD,2024-03-10 21:54:51,14.9833025,0.0003009,70.0,241.9118,270.3214,89.76,-1.1774e-05,-2.33e-06,0.0,0 STARLINK-5815,1 55789U 23028BA  24070.91309486 -.00000233  00000-0 -11774-4 0  9996,2 55789  70.0000 241.9118 0003009 270.3214  89.7600 14.98330250 57861,6950.192,96.107,574.148,569.966,0.0
55789.0,STARLINK-5815,PAYLOAD,2024-03-11 12:20:03,14.98329147,0.0003051,69.9997,240.3969,269.8917,90.1892,2.0663e-05,1.54e-06,0.0,0 STARLINK-5815,1 55789U 23028BA  24071.51393442  .00000154  00000-0  20663-4 0  9995,2 55789  69.9997 240.3969 0003051 269.8917  90.1892 14.98329147 57941,6950.196,96.107,574.181,569.94,0.0
55789.0,STARLINK-5815,PAYLOAD,2024-03-12 12:22:04,14.98330207,0.0003001,70.0,237.8715,268.8061,91.2754,5.4233e-06,-2.8e-07,0.0,0 STARLINK-5815,1 55789U 23028BA  24072.51533381 -.00000028  00000-0  54233-5 0  9996,2 55789  70.0000 237.8715 0003001 268.8061  91.2754 14.98330207 58098,6950.192,96.107,574.143,569.971,0.0
55789.0,STARLINK-5815,PAYLOAD,2024-03-12 17:10:28,14.98331048,0.0003007,70.0,237.3664,268.8194,91.262,1.3872e-05,7.3e-07,0.0,0 STARLINK-5815,1 55789U 23028BA  24072.71561288  .00000073  00000-0  13872-4 0  9997,2 55789  70.0000 237.3664 0003007 268.8194  91.2620 14.98331048 58130,6950.19,96.107,574.145,569.965,0.0
55789.0,STARLINK-5815,PAYLOAD,2024-03-13 12:24:05,14.98329637,0.0003048,69.9987,235.3459,268.8615,91.2194,2.7541e-06,-6e-07,0.0,0 STARLINK-5815,1 55789U 23028BA  24073.51673330 -.00000060  00000-0  27541-5 0  9994,2 55789  69.9987 235.3459 0003048 268.8615  91.2194 14.98329637 58243,6950.194,96.107,574.177,569.941,0.0
55789.0,STARLINK-5815,PAYLOAD,2024-03-13 20:24:45,14.98332134,0.0003043,69.9986,234.5042,268.9409,91.1401,5.4793e-06,-2.8e-07,0.0,0 STARLINK-5815,1 55789U 23028BA  24073.85053135 -.00000028  00000-0  54793-5 0  9999,2 55789  69.9986 234.5042 0003043 268.9409  91.1401 14.98332134 58301,6950.186,96.107,574.166,569.936,0.0
55789.0,STARLINK-5815,PAYLOAD,2024-03-14 04:25:26,14.98332595,0.0003059,69.9992,233.6628,269.1965,90.8844,2.5507e-05,2.11e-06,0.0,0 STARLINK-5815,1 55789U 23028BA  24074.18432987  .00000211  00000-0  25507-4 0  9995,2 55789  69.9992 233.6628 0003059 269.1965  90.8844 14.98332595 58358,6950.185,96.107,574.176,569.924,0.0
55789.0,STARLINK-5815,PAYLOAD,2024-03-14 12:26:06,14.98331243,0.0003046,69.9994,232.8212,269.0649,91.0161,-9.8657e-06,-2.11e-06,0.0,0 STARLINK-5815,1 55789U 23028BA  24074.51813134 -.00000211  00000-0 -98657-5 0  9998,2 55789  69.9994 232.8212 0003046 269.0649  91.0161 14.98331243 58392,6950.189,96.107,574.171,569.937,0.0
55789.0,STARLINK-5815,PAYLOAD,2024-03-14 20:26:46,14.98334061,0.000304,69.9998,231.9796,269.1516,90.9295,1.9644e-05,1.41e-06,0.0,0 STARLINK-5815,1 55789U 23028BA  24074.85192820  .00000141  00000-0  19644-4 0  9995,2 55789  69.9998 231.9796 0003040 269.1516  90.9295 14.98334061 58455,6950.18,96.107,574.158,569.932,0.0
55789.0,STARLINK-5815,PAYLOAD,2024-03-15 12:28:07,14.98328838,0.0002996,70.0001,230.2964,269.258,90.8235,-2.0943e-05,-3.43e-06,0.0,0 STARLINK-5815,1 55789U 23028BA  24075.51953216 -.00000343  00000-0 -20943-4 0  9993,2 55789  70.0001 230.2964 0002996 269.2580  90.8235 14.98328838 58541,6950.196,96.107,574.144,569.979,0.0
55789.0,STARLINK-5815,PAYLOAD,2024-03-15 20:28:47,14.98330865,0.0002961,70.0001,229.4547,268.7173,91.3646,-4.1491e-06,-1.42e-06,0.0,0 STARLINK-5815,1 55789U 23028BA  24075.85333028 -.00000142  00000-0 -41491-5 0  9992,2 55789  70.0001 229.4547 0002961 268.7173  91.3646 14.98330865 58604,6950.19,96.107,574.113,569.997,0.0
55789.0,STARLINK-5815,PAYLOAD,2024-03-16 12:30:08,14.98326617,0.000284,70.0003,227.7718,269.9406,90.1428,-5.5211e-05,-7.52e-06,0.0,0 STARLINK-5815,1 55789U 23028BA  24076.52093522 -.00000752  00000-0 -55211-4 0  9990,2 55789  70.0003 227.7718 0002840 269.9406  90.1428 14.98326617 58699,6950.203,96.107,574.042,570.094,0.0
55789.0,STARLINK-5815,PAYLOAD,2024-03-16 14:06:16,14.9832653,0.0002842,70.0003,227.6035,269.9175,90.1659,-5.4857e-05,-7.47e-06,0.0,0 STARLINK-5815,1 55789U 23028BA  24076.58769539 -.00000747  00000-0 -54857-4 0  9993,2 55789  70.0003 227.6035 0002842 269.9175  90.1659 14.98326530 58718,6950.204,96.107,574.044,570.093,0.0
55789.0,STARLINK-5815,PAYLOAD,2024-03-16 18:54:41,14.98324443,0.0002748,70.0011,227.1,265.9171,94.1674,-5.668e-05,-7.69e-06,0.0,0 STARLINK-5815,1 55789U 23028BA  24076.78797722 -.00000769  00000-0 -56680-4 0  9990,2 55789  70.0011 227.1000 0002748 265.9171  94.1674 14.98324443 58746,6950.21,96.107,573.985,570.165,0.0
55789.0,STARLINK-5815,PAYLOAD,2024-03-17 12:32:09,14.98330801,0.0002908,70.0007,225.2482,265.6079,94.4748,1.5453e-05,9.1e-07,0.0,0 STARLINK-5815,1 55789U 23028BA  24077.52233151  .00000091  00000-0  15453-4 0  9993,2 55789  70.0007 225.2482 0002908 265.6079  94.4748 14.98330801 58847,6950.19,96.107,574.077,570.034,0.0
55789.0,STARLINK-5815,PAYLOAD,2024-03-17 14:08:17,14.98330969,0.0002903,70.0007,225.0799,265.7353,94.3475,1.7951e-05,1.21e-06,0.0,0 STARLINK-5815,1 55789U 23028BA  24077.58909132  .00000121  00000-0  17951-4 0  9997,2 55789  70.0007 225.0799 0002903 265.7353  94.3475 14.98330969 58860,6950.19,96.107,574.073,570.037,0.0
55789.0,STARLINK-5815,PAYLOAD,2024-03-17 20:32:49,14.98332853,0.0002862,70.001,224.4066,263.3259,96.7575,4.3312e-05,4.24e-06,0.0,0 STARLINK-5815,1 55789U 23028BA  24077.85612911  .00000424  00000-0  43312-4 0  9999,2 55789  70.0010 224.4066 0002862 263.3259  96.7575 14.98332853 58903,6950.184,96.107,574.038,570.06,0.0
